[{"OBJECT_ID":"2015-075J","OBJECT_NAME":"BREEZE-M DEB","NORAD_CAT_ID":"41548","OBJECT_TYPE":"DEBRIS","PERIOD":"1409.062","INCLINATION":"1.01","APOGEE":"36894.013","PERIGEE":"33617.485","ECCENTRICITY":"0.0393493","MEAN_MOTION":"1.02195639","TLE_LINE1":"1 41548U 15075J   16228.57390672 -.00000272 +00000-0 +00000-0 0  9990","TLE_LINE2":"2 41548 001.0100 063.8404 0393493 056.6175 307.7740 01.02195639002558","LAUNCH_DATE":"2015-12-13","LAUNCH_SITE":"TYURATAM MISSILE AND SPACE COMPLEX","OWNER":"COMMONWEALTH OF INDEPENDENT STATES","ORBIT_TYPE":"Unclassified","OPERATIONAL_STATUS":"N/A, space debris","satInfo":{"lng":8.382426006539056,"lat":3.0285966657224304,"elevation":-6.055180156441263,"azimuth":306.61757399346095,"range":40223.950447177835,"height":33677.28091322772,"velocity":3.213872325447481},"x":36,"y":-262,"dx":3.1795388282293975,"dy":0.4685169837464044},{"OBJECT_ID":"2016-037A","OBJECT_NAME":"BEIDOU G7","NORAD_CAT_ID":"41586","OBJECT_TYPE":"PAYLOAD","PERIOD":"1436.064","INCLINATION":"1.732","APOGEE":"35801.834","PERIGEE":"35770.084","ECCENTRICITY":"0.0003765","MEAN_MOTION":"1.00274058","TLE_LINE1":"1 41586U 16037A   16238.52689913 -.00000274 +00000-0 +00000-0 0  9998","TLE_LINE2":"2 41586 001.7320 308.3119 0003765 268.7600 091.2952 01.00274058000874","LAUNCH_DATE":"2016-06-12","LAUNCH_SITE":"Xichang Space Center, China","OWNER":"PEOPLES REPUBLIC OF CHINA","ORBIT_TYPE":"Geosynchronous","OPERATIONAL_STATUS":"Operational","satInfo":{"lng":-38.83359115363475,"lat":0.08764116294900119,"elevation":-8.48252602811066,"azimuth":353.83359115363476,"range":42659.77047059923,"height":35815.02311725401,"velocity":3.0731558051303227},"x":-168,"y":-220,"dx":2.393897616051377,"dy":-1.9270549567850257},{"OBJECT_ID":"2016-050A","OBJECT_NAME":"JCSAT 16","NORAD_CAT_ID":"41729","OBJECT_TYPE":"PAYLOAD","PERIOD":"1436.074","INCLINATION":"0.0588","APOGEE":"35795.861","PERIGEE":"35776.465","ECCENTRICITY":"0.00023","MEAN_MOTION":"1.00273332","TLE_LINE1":"1 41729U 16050A   16238.84759331 -.00000228 +00000-0 +00000-0 0  9998","TLE_LINE2":"2 41729 000.0588 284.8956 0002300 245.1885 259.5796 01.00273332000178","LAUNCH_DATE":"2016-08-14","LAUNCH_SITE":"AIR FORCE EASTERN TEST RANGE","OWNER":"JAPAN","ORBIT_TYPE":"Geosynchronous","OPERATIONAL_STATUS":"Operational","satInfo":{"lng":-129.07701888797155,"lat":2.2226453156169184,"elevation":-6.3887432606066685,"azimuth":84.07701888797153,"range":42435.81658123154,"height":35825.864083582856,"velocity":3.0729368337177023},"x":-208,"y":178,"dx":-1.9370702524420162,"dy":-2.385518732083905}]